{"type": "FeatureCollection", "features": [{"type": "Feature", "properties": {"norad_id": 24946, "name": "IRIDIUM 33", "group": "iridium-33-debris", "lat": -59.60833742022909, "lon": 61.178102727416466, "alt_km": 783.6506276340042, "timestamp": "2025-12-14T18:52:55.888289+00:00", "meta": {"OBJECT_NAME": "IRIDIUM 33", "OBJECT_ID": "1997-051C", "EPOCH": "2025-12-13T23:04:43.905792", "MEAN_MOTION": 14.3503853, "ECCENTRICITY": 0.00071725, "INCLINATION": 86.387, "RA_OF_ASC_NODE": 67.7088, "ARG_OF_PERICENTER": 195.9942, "MEAN_ANOMALY": 164.1029, "EPHEMERIS_TYPE": 0, "CLASSIFICATION_TYPE": "U", "NORAD_CAT_ID": 24946, "ELEMENT_SET_NO": 999, "REV_AT_EPOCH": 47852, "BSTAR": 0.0001579136, "MEAN_MOTION_DOT": 4.69e-06, "MEAN_MOTION_DDOT": 0}, "tle": {"line1": "1 24946U 97051C   25347.96161928  .00000469  00000+0  15791-3 0  9994", "line2": "2 24946  86.3870  67.7088 0007172 195.9942 164.1029 14.35038530478522"}}, "geometry": {"type": "Point", "coordinates": [61.178102727416466, -59.60833742022909]}}, {"type": "Feature", "properties": {"norad_id": 33773, "name": "IRIDIUM 33 DEB", "group": "iridium-33-debris", "lat": -42.30738350889507, "lon": 56.43818184711219, "alt_km": 763.3912104769342, "timestamp": "2025-12-14T18:52:55.888316+00:00", "meta": {"OBJECT_NAME": "IRIDIUM 33 DEB", "OBJECT_ID": "1997-051L", "EPOCH": "2025-12-13T23:06:40.461120", "MEAN_MOTION": 14.43260544, "ECCENTRICITY": 0.00125684, "INCLINATION": 86.4009, "RA_OF_ASC_NODE": 60.0712, "ARG_OF_PERICENTER": 142.849, "MEAN_ANOMALY": 217.3583, "EPHEMERIS_TYPE": 0, "CLASSIFICATION_TYPE": "U", "NORAD_CAT_ID": 33773, "ELEMENT_SET_NO": 999, "REV_AT_EPOCH": 88365, "BSTAR": 0.00042689308, "MEAN_MOTION_DOT": 1.457e-05, "MEAN_MOTION_DDOT": 0}, "tle": {"line1": "1 33773U 97051L   25347.96296830  .00001457  00000+0  42689-3 0  9997", "line2": "2 33773  86.4009  60.0712 0012568 142.8490 217.3583 14.43260544883650"}}, "geometry": {"type": "Point", "coordinates": [56.43818184711219, -42.30738350889507]}}, {"type": "Feature", "properties": {"norad_id": 33775, "name": "IRIDIUM 33 DEB", "group": "iridium-33-debris", "lat": 27.718686560413357, "lon": 50.59468815543912, "alt_km": 757.7163401315502, "timestamp": "2025-12-14T18:52:55.888331+00:00", "meta": {"OBJECT_NAME": "IRIDIUM 33 DEB", "OBJECT_ID": "1997-051N", "EPOCH": "2025-12-13T21:54:04.593888", "MEAN_MOTION": 14.41471606, "ECCENTRICITY": 0.00144095, "INCLINATION": 86.3637, "RA_OF_ASC_NODE": 49.053, "ARG_OF_PERICENTER": 151.0323, "MEAN_ANOMALY": 23.3634, "EPHEMERIS_TYPE": 0, "CLASSIFICATION_TYPE": "U", "NORAD_CAT_ID": 33775, "ELEMENT_SET_NO": 999, "REV_AT_EPOCH": 88157, "BSTAR": 0.00043370685, "MEAN_MOTION_DOT": 1.428e-05, "MEAN_MOTION_DDOT": 0}, "tle": {"line1": "1 33775U 97051N   25347.91255317  .00001428  00000+0  43371-3 0  9996", "line2": "2 33775  86.3637  49.0530 0014409 151.0323  23.3634 14.41471606881578"}}, "geometry": {"type": "Point", "coordinates": [50.59468815543912, 27.718686560413357]}}, {"type": "Feature", "properties": {"norad_id": 33776, "name": "IRIDIUM 33 DEB", "group": "iridium-33-debris", "lat": -53.96102986339836, "lon": -95.12495032544247, "alt_km": 764.809239111486, "timestamp": "2025-12-14T18:52:55.888344+00:00", "meta": {"OBJECT_NAME": "IRIDIUM 33 DEB", "OBJECT_ID": "1997-051P", "EPOCH": "2025-12-14T00:14:02.577984", "MEAN_MOTION": 14.38237824, "ECCENTRICITY": 0.00144871, "INCLINATION": 86.4037, "RA_OF_ASC_NODE": 80.2426, "ARG_OF_PERICENTER": 186.2029, "MEAN_ANOMALY": 347.1904, "EPHEMERIS_TYPE": 0, "CLASSIFICATION_TYPE": "U", "NORAD_CAT_ID": 33776, "ELEMENT_SET_NO": 999, "REV_AT_EPOCH": 88100, "BSTAR": 0.00038624608, "MEAN_MOTION_DOT": 1.194e-05, "MEAN_MOTION_DDOT": 0}, "tle": {"line1": "1 33776U 97051P   25348.00975206  .00001194  00000+0  38625-3 0  9990", "line2": "2 33776  86.4037  80.2426 0014487 186.2029 347.1904 14.38237824881007"}}, "geometry": {"type": "Point", "coordinates": [-95.12495032544247, -53.96102986339836]}}, {"type": "Feature", "properties": {"norad_id": 33777, "name": "IRIDIUM 33 DEB", "group": "iridium-33-debris", "lat": 30.335922711014216, "lon": -147.81066246794612, "alt_km": 705.8949627165457, "timestamp": "2025-12-14T18:52:55.888357+00:00", "meta": {"OBJECT_NAME": "IRIDIUM 33 DEB", "OBJECT_ID": "1997-051Q", "EPOCH": "2025-12-13T15:47:59.127936", "MEAN_MOTION": 14.55625093, "ECCENTRICITY": 0.00052146, "INCLINATION": 86.3788, "RA_OF_ASC_NODE": 34.8038, "ARG_OF_PERICENTER": 244.6172, "MEAN_ANOMALY": 115.4496, "EPHEMERIS_TYPE": 0, "CLASSIFICATION_TYPE": "U", "NORAD_CAT_ID": 33777, "ELEMENT_SET_NO": 999, "REV_AT_EPOCH": 88547, "BSTAR": 0.0010882245, "MEAN_MOTION_DOT": 4.769e-05, "MEAN_MOTION_DDOT": 0}, "tle": {"line1": "1 33777U 97051Q   25347.65832324  .00004769  00000+0  10882-2 0  9999", "line2": "2 33777  86.3788  34.8038 0005214 244.6172 115.4496 14.55625093885475"}}, "geometry": {"type": "Point", "coordinates": [-147.81066246794612, 30.335922711014216]}}, {"type": "Feature", "properties": {"norad_id": 33850, "name": "IRIDIUM 33 DEB", "group": "iridium-33-debris", "lat": 13.679193614724761, "lon": 30.191933185227892, "alt_km": 759.3399558789861, "timestamp": "2025-12-14T18:52:55.888369+00:00", "meta": {"OBJECT_NAME": "IRIDIUM 33 DEB", "OBJECT_ID": "1997-051T", "EPOCH": "2025-12-13T23:25:47.161056", "MEAN_MOTION": 14.42149159, "ECCENTRICITY": 0.00123622, "INCLINATION": 86.3417, "RA_OF_ASC_NODE": 29.6481, "ARG_OF_PERICENTER": 157.2308, "MEAN_ANOMALY": 331.3601, "EPHEMERIS_TYPE": 0, "CLASSIFICATION_TYPE": "U", "NORAD_CAT_ID": 33850, "ELEMENT_SET_NO": 999, "REV_AT_EPOCH": 88170, "BSTAR": 0.0003954182, "MEAN_MOTION_DOT": 1.321e-05, "MEAN_MOTION_DDOT": 0}, "tle": {"line1": "1 33850U 97051T   25347.97624029  .00001321  00000+0  39542-3 0  9993", "line2": "2 33850  86.3417  29.6481 0012362 157.2308 331.3601 14.42149159881701"}}, "geometry": {"type": "Point", "coordinates": [30.191933185227892, 13.679193614724761]}}, {"type": "Feature", "properties": {"norad_id": 33853, "name": "IRIDIUM 33 DEB", "group": "iridium-33-debris", "lat": 78.10242036506396, "lon": 8.311701758416824, "alt_km": 1020.329975363943, "timestamp": "2025-12-14T18:52:55.888381+00:00", "meta": {"OBJECT_NAME": "IRIDIUM 33 DEB", "OBJECT_ID": "1997-051W", "EPOCH": "2025-12-13T23:45:09.424224", "MEAN_MOTION": 13.99072325, "ECCENTRICITY": 0.02069852, "INCLINATION": 85.9998, "RA_OF_ASC_NODE": 349.2635, "ARG_OF_PERICENTER": 231.9376, "MEAN_ANOMALY": 155.9349, "EPHEMERIS_TYPE": 0, "CLASSIFICATION_TYPE": "U", "NORAD_CAT_ID": 33853, "ELEMENT_SET_NO": 999, "REV_AT_EPOCH": 85363, "BSTAR": 0.0021762861, "MEAN_MOTION_DOT": 3.799e-05, "MEAN_MOTION_DDOT": 0}, "tle": {"line1": "1 33853U 97051W   25347.98969241  .00003799  00000+0  21763-2 0  9991", "line2": "2 33853  85.9998 349.2635 0206985 231.9376 155.9349 13.99072325853637"}}, "geometry": {"type": "Point", "coordinates": [8.311701758416824, 78.10242036506396]}}, {"type": "Feature", "properties": {"norad_id": 33860, "name": "IRIDIUM 33 DEB", "group": "iridium-33-debris", "lat": 46.26787830324994, "lon": -157.45810727925775, "alt_km": 669.5389825924703, "timestamp": "2025-12-14T18:52:55.888393+00:00", "meta": {"OBJECT_NAME": "IRIDIUM 33 DEB", "OBJECT_ID": "1997-051AD", "EPOCH": "2025-12-13T15:00:21.453120", "MEAN_MOTION": 14.67386178, "ECCENTRICITY": 0.00073265, "INCLINATION": 86.3837, "RA_OF_ASC_NODE": 26.8461, "ARG_OF_PERICENTER": 354.8244, "MEAN_ANOMALY": 126.8398, "EPHEMERIS_TYPE": 0, "CLASSIFICATION_TYPE": "U", "NORAD_CAT_ID": 33860, "ELEMENT_SET_NO": 999, "REV_AT_EPOCH": 88735, "BSTAR": 0.0013684197, "MEAN_MOTION_DOT": 7.759e-05, "MEAN_MOTION_DDOT": 0}, "tle": {"line1": "1 33860U 97051AD  25347.62524830  .00007759  00000+0  13684-2 0  9994", "line2": "2 33860  86.3837  26.8461 0007326 354.8244 126.8398 14.67386178887351"}}, "geometry": {"type": "Point", "coordinates": [-157.45810727925775, 46.26787830324994]}}, {"type": "Feature", "properties": {"norad_id": 33862, "name": "IRIDIUM 33 DEB", "group": "iridium-33-debris", "lat": -4.955218442159242, "lon": -143.06037815009282, "alt_km": 686.4148487136235, "timestamp": "2025-12-14T18:52:55.888404+00:00", "meta": {"OBJECT_NAME": "IRIDIUM 33 DEB", "OBJECT_ID": "1997-051AF", "EPOCH": "2025-12-13T21:34:59.258208", "MEAN_MOTION": 14.69505974, "ECCENTRICITY": 0.00533318, "INCLINATION": 86.4091, "RA_OF_ASC_NODE": 37.0189, "ARG_OF_PERICENTER": 65.2911, "MEAN_ANOMALY": 107.2095, "EPHEMERIS_TYPE": 0, "CLASSIFICATION_TYPE": "U", "NORAD_CAT_ID": 33862, "ELEMENT_SET_NO": 999, "REV_AT_EPOCH": 88840, "BSTAR": 0.0015629204, "MEAN_MOTION_DOT": 9.498e-05, "MEAN_MOTION_DDOT": 0}, "tle": {"line1": "1 33862U 97051AF  25347.89929697  .00009498  00000+0  15629-2 0  9998", "line2": "2 33862  86.4091  37.0189 0053331  65.2911 107.2095 14.69505974888401"}}, "geometry": {"type": "Point", "coordinates": [-143.06037815009282, -4.955218442159242]}}, {"type": "Feature", "properties": {"norad_id": 33866, "name": "IRIDIUM 33 DEB", "group": "iridium-33-debris", "lat": -74.39767426683072, "lon": 78.76976100006343, "alt_km": 867.6858927670373, "timestamp": "2025-12-14T18:52:55.888415+00:00", "meta": {"OBJECT_NAME": "IRIDIUM 33 DEB", "OBJECT_ID": "1997-051AK", "EPOCH": "2025-12-13T20:14:24.786816", "MEAN_MOTION": 14.25280587, "ECCENTRICITY": 0.01145719, "INCLINATION": 86.2997, "RA_OF_ASC_NODE": 92.5686, "ARG_OF_PERICENTER": 157.8971, "MEAN_ANOMALY": 328.6477, "EPHEMERIS_TYPE": 0, "CLASSIFICATION_TYPE": "U", "NORAD_CAT_ID": 33866, "ELEMENT_SET_NO": 999, "REV_AT_EPOCH": 86826, "BSTAR": 0.00088018555, "MEAN_MOTION_DOT": 2.237e-05, "MEAN_MOTION_DDOT": 0}, "tle": {"line1": "1 33866U 97051AK  25347.84334244  .00002237  00000+0  88019-3 0  9993", "line2": "2 33866  86.2997  92.5686 0114571 157.8971 328.6477 14.25280587868261"}}, "geometry": {"type": "Point", "coordinates": [78.76976100006343, -74.39767426683072]}}]}